H1 CPF  1  DLR 2021 10 22 10  7952 technosat            
H2  1704205 6203    42829 2021 10 22 00 00 00 2021 10 29 00 00 00    60 1 1  0 0 0
H9
10 0 59513  50400.000000  0      -1211994.633       3931965.484       5613974.758
10 0 59513  50460.000000  0      -1200912.199       4300178.682       5341088.975
10 0 59513  50520.000000  0      -1181618.313       4650105.150       5045491.508
10 0 59513  50580.000000  0      -1154361.518       4980198.016       4728440.540
10 0 59513  50640.000000  0      -1119437.188       5288997.071       4391285.604
10 0 59513  50700.000000  0      -1077185.439       5575135.387       4035461.772
10 0 59513  50760.000000  0      -1027988.874       5837345.493       3662483.618
10 0 59513  50820.000000  0       -972270.155       6074465.316       3273938.848
10 0 59513  50880.000000  0       -910489.324       6285443.727       2871481.419
10 0 59513  50940.000000  0       -843140.797       6469345.435       2456824.189
10 0 59513  51000.000000  0       -770750.137       6625355.190       2031731.436
10 0 59513  51060.000000  0       -693870.753       6752781.531       1598011.195
10 0 59513  51120.000000  0       -613080.409       6851059.944       1157507.338
10 0 59513  51180.000000  0       -528977.592       6919755.380        712091.526
10 0 59513  51240.000000  0       -442177.781       6958564.199        263655.050
10 0 59513  51300.000000  0       -353309.628       6967315.502       -185899.452
10 0 59513  51360.000000  0       -263011.072       6945971.797       -634666.375
10 0 59513  51420.000000  0       -171925.404       6894628.936      -1080745.509
10 0 59513  51480.000000  0        -80697.357       6813515.349      -1522250.291
10 0 59513  51540.000000  0         10030.763       6702990.690      -1957315.890
10 0 59513  51600.000000  0         99622.925       6563543.897      -2384107.140
10 0 59513  51660.000000  0        187453.154       6395790.704      -2800826.309
10 0 59513  51720.000000  0        272909.256       6200470.572      -3205720.666
10 0 59513  51780.000000  0        355396.441       5978443.048      -3597089.810
10 0 59513  51840.000000  0        434340.829       5730683.597      -3973292.695
10 0 59513  51900.000000  0        509192.819       5458278.941      -4332754.357
10 0 59513  51960.000000  0        579430.295       5162421.914      -4673972.286
10 0 59513  52020.000000  0        644561.658       4844405.916      -4995522.429
10 0 59513  52080.000000  0        704128.687       4505618.965      -5296064.824
10 0 59513  52140.000000  0        757709.173       4147537.398      -5574348.844
10 0 59513  52200.000000  0        804919.336       3771719.232      -5829218.043
10 0 59513  52260.000000  0        845415.999       3379797.228      -6059614.594
10 0 59513  52320.000000  0        878898.564       2973471.694      -6264583.265
10 0 59513  52380.000000  0        905110.750       2554503.082      -6443274.971
10 0 59513  52440.000000  0        923842.068       2124704.431      -6594949.862
10 0 59513  52500.000000  0        934929.060       1685933.693      -6718980.079
10 0 59513  52560.000000  0        938256.265       1240085.831      -6814852.104
10 0 59513  52620.000000  0        933756.939        789084.829      -6882168.609
10 0 59513  52680.000000  0        921413.554        334875.660      -6920649.933
10 0 59513  52740.000000  0        901258.001       -120583.891      -6930135.139
10 0 59513  52800.000000  0        873371.513       -575331.407      -6910582.554
10 0 59513  52860.000000  0        837884.353      -1027407.957      -6862069.904
10 0 59513  52920.000000  0        794975.258      -1474866.211      -6784794.065
10 0 59513  52980.000000  0        744870.626      -1915778.487      -6679070.392
10 0 59513  53040.000000  0        687843.468      -2348244.743      -6545331.742
10 0 59513  53100.000000  0        624212.087      -2770400.636      -6384127.098
10 0 59513  53160.000000  0        554338.453      -3180425.506      -6196119.613
10 0 59513  53220.000000  0        478626.359      -3576550.137      -5982084.172
10 0 59513  53280.000000  0        397519.388      -3957064.325      -5742904.565
10 0 59513  53340.000000  0        311498.642      -4320324.272      -5479570.271
10 0 59513  53400.000000  0        221080.220      -4664759.792      -5193172.817
10 0 59513  53460.000000  0        126812.479      -4988881.275      -4884901.680
10 0 59513  53520.000000  0         29273.076      -5291286.386      -4556039.775
10 0 59513  53580.000000  0        -70934.172      -5570666.443      -4207958.474
10 0 59513  53640.000000  0       -173182.617      -5825812.430      -3842112.215
10 0 59513  53700.000000  0       -276826.253      -6055620.597      -3460032.706
10 0 59513  53760.000000  0       -381203.369      -6259097.639      -3063322.782
10 0 59513  53820.000000  0       -485640.317      -6435365.468      -2653649.904
10 0 59513  53880.000000  0       -589455.394      -6583665.502      -2232739.258
10 0 59513  53940.000000  0       -691962.815      -6703362.413      -1802366.505
10 0 59513  54000.000000  0       -792476.741      -6793947.271      -1364350.247
10 0 59513  54060.000000  0       -890315.349      -6855040.123       -920544.268
10 0 59513  54120.000000  0       -984804.920      -6886391.955       -472829.525
10 0 59513  54180.000000  0      -1075283.916      -6887886.017        -23106.001
10 0 59513  54240.000000  0      -1161107.025      -6859538.532        426715.566
10 0 59513  54300.000000  0      -1241649.165      -6801498.777        874722.075
10 0 59513  54360.000000  0      -1316309.394      -6714048.486       1319006.504
10 0 59513  54420.000000  0      -1384514.693      -6597600.592       1757676.362
10 0 59513  54480.000000  0      -1445723.615      -6452697.309       2188862.090
10 0 59513  54540.000000  0      -1499429.768      -6280007.550       2610725.353
10 0 59513  54600.000000  0      -1545165.129      -6080323.748       3021467.179
10 0 59513  54660.000000  0      -1582503.117      -5854558.047       3419335.944
10 0 59513  54720.000000  0      -1611061.417      -5603737.888       3802635.068
10 0 59513  54780.000000  0      -1630504.580      -5329001.057       4169730.410
10 0 59513  54840.000000  0      -1640546.387      -5031590.277       4519057.340
10 0 59513  54900.000000  0      -1640951.945      -4712847.353       4849127.531
10 0 59513  54960.000000  0      -1631539.524      -4374206.852       5158535.420
10 0 59513  55020.000000  0      -1612182.078      -4017189.314       5445964.306
10 0 59513  55080.000000  0      -1582808.462      -3643394.018       5710191.946
10 0 59513  55140.000000  0      -1543404.308      -3254491.487       5950095.653
10 0 59513  55200.000000  0      -1494012.594      -2852215.747       6164656.933
10 0 59513  55260.000000  0      -1434733.894      -2438356.381       6352965.659
10 0 59513  55320.000000  0      -1365726.355      -2014750.425       6514223.813
10 0 59513  55380.000000  0      -1287205.363      -1583274.032       6647748.798
10 0 59513  55440.000000  0      -1199442.926      -1145833.958       6752976.219
10 0 59513  55500.000000  0      -1102766.755       -704358.960       6829462.097
10 0 59513  55560.000000  0       -997559.055       -260791.215       6876884.587
10 0 59513  55620.000000  0       -884254.981        182922.274       6895045.276
10 0 59513  55680.000000  0       -763340.801        624838.327       6883870.005
10 0 59513  55740.000000  0       -635351.759       1063026.210       6843409.100
10 0 59513  55800.000000  0       -500869.664       1495576.130       6773837.116
10 0 59513  55860.000000  0       -360520.216       1920607.643       6675452.085
10 0 59513  55920.000000  0       -214970.066       2336277.930       6548674.232
10 0 59513  55980.000000  0        -64923.643       2740789.810       6394044.189
10 0 59513  56040.000000  0         88880.226       3132399.612       6212220.803
10 0 59513  56100.000000  0        245671.911       3509424.851       6003978.390
10 0 59513  56160.000000  0        404654.786       3870251.593       5770203.492
10 0 59513  56220.000000  0        565009.230       4213341.502       5511891.172
10 0 59513  56280.000000  0        725896.792       4537238.567       5230140.895
10 0 59513  56340.000000  0        886464.534       4840575.534       4926151.903
10 0 59513  56400.000000  0       1045849.461       5122079.890       4601218.061
10 0 59513  56460.000000  0       1203183.010       5380579.325       4256722.368
10 0 59513  56520.000000  0       1357595.581       5615006.780       3894131.148
10 0 59513  56580.000000  0       1508221.243       5824405.136       3514988.029
10 0 59513  56640.000000  0       1654202.708       6007931.626       3120907.196
10 0 59513  56700.000000  0       1794695.957       6164861.254       2713566.076
10 0 59513  56760.000000  0       1928874.749       6294589.730       2294698.180
10 0 59513  56820.000000  0       2055935.325       6396636.010       1866085.550
10 0 59513  56880.000000  0       2175100.960       6470644.073       1429550.853
10 0 59513  56940.000000  0       2285626.352       6516384.047        986949.395
10 0 59513  57000.000000  0       2386801.870       6533752.765        540161.025
10 0 59513  57060.000000  0       2477957.639       6522773.741         91081.944
10 0 59513  57120.000000  0       2558467.447       6483596.543       -358383.557
10 0 59513  57180.000000  0       2627752.440       6416495.565       -806331.388
10 0 59513  57240.000000  0       2685284.594       6321868.176      -1250865.908
10 0 59513  57300.000000  0       2730589.927       6200232.307      -1690108.089
10 0 59513  57360.000000  0       2763251.434       6052223.491      -2122203.590
10 0 59513  57420.000000  0       2782911.740       5878591.360      -2545330.690
10 0 59513  57480.000000  0       2789275.461       5680195.605      -2957708.039
10 0 59513  57540.000000  0       2782111.218       5458001.417      -3357602.182
99
